{"type": "FeatureCollection", "features": [ {"type": "Feature", "properties": {"norad_id": 33917, "name": "COSMOS 2251 DEB", "group": "cosmos-2251-debris", "lat": -9.526364432512505, "lon": -54.65430992070131, "alt_km": 799.9222070444075, "timestamp": "2025-12-12T14:39:18.325797+00:00", "meta": {"OBJECT_NAME": "COSMOS 2251 DEB", "OBJECT_ID": "1993-036DW", "EPOCH": "2025-12-12T03:11:17.369088", "MEAN_MOTION": 13.69357688, "ECCENTRICITY": 0.03312639, "INCLINATION": 74.1068, "RA_OF_ASC_NODE": 123.3884, "ARG_OF_PERICENTER": 224.4791, "MEAN_ANOMALY": 132.9296, "EPHEMERIS_TYPE": 0, "CLASSIFICATION_TYPE": "U", "NORAD_CAT_ID": 33917, "ELEMENT_SET_NO": 999, "REV_AT_EPOCH": 83725, "BSTAR": 0.0010791177, "MEAN_MOTION_DOT": 1.355e-05, "MEAN_MOTION_DDOT": 0}, "tle": {"line1": "1 33917U 93036DW  25346.13283992  .00001355  00000+0  10791-2 0  9994", "line2": "2 33917  74.1068 123.3884 0331263 224.4791 132.9296 13.69357688837250"}}, "geometry": {"type": "Point", "coordinates": [-54.65430992070131, -9.526364432512505]}}, {"type": "Feature", "properties": {"norad_id": 33920, "name": "COSMOS 2251 DEB", "group": "cosmos-2251-debris", "lat": -49.40205159043598, "lon": 138.1514313102018, "alt_km": 697.3048615719263, "timestamp": "2025-12-12T14:39:18.325806+00:00", "meta": {"OBJECT_NAME": "COSMOS 2251 DEB", "OBJECT_ID": "1993-036DZ", "EPOCH": "2025-12-11T22:46:20.793792", "MEAN_MOTION": 14.58254573, "ECCENTRICITY": 0.003829, "INCLINATION": 74.0615, "RA_OF_ASC_NODE": 299.9305, "ARG_OF_PERICENTER": 306.5878, "MEAN_ANOMALY": 53.1766, "EPHEMERIS_TYPE": 0, "CLASSIFICATION_TYPE": "U", "NORAD_CAT_ID": 33920, "ELEMENT_SET_NO": 999, "REV_AT_EPOCH": 88103, "BSTAR": 0.0029367, "MEAN_MOTION_DOT": 0.00013703, "MEAN_MOTION_DDOT": 0}, "tle": {"line1": "1 33920U 93036DZ  25345.94885178  .00013703  00000+0  29367-2 0  9999", "line2": "2 33920  74.0615 299.9305 0038290 306.5878  53.1766 14.58254573881030"}}, "geometry": {"type": "Point", "coordinates": [138.1514313102018, -49.40205159043598]}}, {"type": "Feature", "properties": {"norad_id": 33922, "name": "COSMOS 2251 DEB", "group": "cosmos-2251-debris", "lat": 17.880048064693657, "lon": 153.3005369475516, "alt_km": 735.5815697694834, "timestamp": "2025-12-12T14:39:18.325816+00:00", "meta": {"OBJECT_NAME": "COSMOS 2251 DEB", "OBJECT_ID": "1993-036EB", "EPOCH": "2025-12-11T22:43:59.164320", "MEAN_MOTION": 14.49502228, "ECCENTRICITY": 0.0023269, "INCLINATION": 74.0467, "RA_OF_ASC_NODE": 149.2491, "ARG_OF_PERICENTER": 259.9764, "MEAN_ANOMALY": 258.0846, "EPHEMERIS_TYPE": 0, "CLASSIFICATION_TYPE": "U", "NORAD_CAT_ID": 33922, "ELEMENT_SET_NO": 999, "REV_AT_EPOCH": 88566, "BSTAR": 0.00075079, "MEAN_MOTION_DOT": 2.861e-05, "MEAN_MOTION_DDOT": 0}, "tle": {"line1": "1 33922U 93036EB  25345.94721255  .00002861  00000+0  75079-3 0  9991", "line2": "2 33922  74.0467 149.2491 0023269 259.9764 258.0846 14.49502228885666"}}, "geometry": {"type": "Point", "coordinates": [153.3005369475516, 17.880048064693657]}}, {"type": "Feature", "properties": {"norad_id": 33924, "name": "COSMOS 2251 DEB", "group": "cosmos-2251-debris", "lat": -1.5865913115373858, "lon": -90.04878533518044, "alt_km": 883.7259516603935, "timestamp": "2025-12-12T14:39:18.325826+00:00", "meta": {"OBJECT_NAME": "COSMOS 2251 DEB", "OBJECT_ID": "1993-036ED", "EPOCH": "2025-12-12T05:46:20.355168", "MEAN_MOTION": 13.50224081, "ECCENTRICITY": 0.04040441, "INCLINATION": 73.9136, "RA_OF_ASC_NODE": 271.0038, "ARG_OF_PERICENTER": 306.5441, "MEAN_ANOMALY": 49.9093, "EPHEMERIS_TYPE": 0, "CLASSIFICATION_TYPE": "U", "NORAD_CAT_ID": 33924, "ELEMENT_SET_NO": 999, "REV_AT_EPOCH": 82732, "BSTAR": 0.0013304718, "MEAN_MOTION_DOT": 1.387e-05, "MEAN_MOTION_DDOT": 0}, "tle": {"line1": "1 33924U 93036ED  25346.24051337  .00001387  00000+0  13305-2 0  9999", "line2": "2 33924  73.9136 271.0038 0404044 306.5441  49.9093 13.50224081827324"}}, "geometry": {"type": "Point", "coordinates": [-90.04878533518044, -1.5865913115373858]}}, {"type": "Feature", "properties": {"norad_id": 33928, "name": "COSMOS 2251 DEB", "group": "cosmos-2251-debris", "lat": -40.58279401167174, "lon": -112.89251126756132, "alt_km": 764.8387952810899, "timestamp": "2025-12-12T14:39:18.325835+00:00", "meta": {"OBJECT_NAME": "COSMOS 2251 DEB", "OBJECT_ID": "1993-036EH", "EPOCH": "2025-12-12T06:59:29.998752", "MEAN_MOTION": 14.47403693, "ECCENTRICITY": 0.00614303, "INCLINATION": 73.9261, "RA_OF_ASC_NODE": 53.4096, "ARG_OF_PERICENTER": 347.621, "MEAN_ANOMALY": 12.3435, "EPHEMERIS_TYPE": 0, "CLASSIFICATION_TYPE": "U", "NORAD_CAT_ID": 33928, "ELEMENT_SET_NO": 999, "REV_AT_EPOCH": 88638, "BSTAR": 0.00038050116, "MEAN_MOTION_DOT": 1.4e-05, "MEAN_MOTION_DDOT": 0}, "tle": {"line1": "1 33928U 93036EH  25346.29131943  .00001400  00000+0  38050-3 0  9991", "line2": "2 33928  73.9261  53.4096 0061430 347.6210  12.3435 14.47403693886381"}}, "geometry": {"type": "Point", "coordinates": [-112.89251126756132, -40.58279401167174]}}, {"type": "Feature", "properties": {"norad_id": 33932, "name": "COSMOS 2251 DEB", "group": "cosmos-2251-debris", "lat": 4.074853605640485, "lon": -42.67551271766302, "alt_km": 742.4210806887149, "timestamp": "2025-12-12T14:39:18.325844+00:00", "meta": {"OBJECT_NAME": "COSMOS 2251 DEB", "OBJECT_ID": "1993-036EM", "EPOCH": "2025-12-12T06:17:30.086592", "MEAN_MOTION": 14.38756333, "ECCENTRICITY": 0.00352735, "INCLINATION": 74.0346, "RA_OF_ASC_NODE": 316.7983, "ARG_OF_PERICENTER": 33.1362, "MEAN_ANOMALY": 327.1991, "EPHEMERIS_TYPE": 0, "CLASSIFICATION_TYPE": "U", "NORAD_CAT_ID": 33932, "ELEMENT_SET_NO": 999, "REV_AT_EPOCH": 87991, "BSTAR": 0.00081160831, "MEAN_MOTION_DOT": 2.485e-05, "MEAN_MOTION_DDOT": 0}, "tle": {"line1": "1 33932U 93036EM  25346.26215378  .00002485  00000+0  81161-3 0  9993", "line2": "2 33932  74.0346 316.7983 0035273  33.1362 327.1991 14.38756333879910"}}, "geometry": {"type": "Point", "coordinates": [-42.67551271766302, 4.074853605640485]}}, {"type": "Feature", "properties": {"norad_id": 33933, "name": "COSMOS 2251 DEB", "group": "cosmos-2251-debris", "lat": -34.373872588957404, "lon": -108.37621373030763, "alt_km": 828.3562394193741, "timestamp": "2025-12-12T14:39:18.325854+00:00", "meta": {"OBJECT_NAME": "COSMOS 2251 DEB", "OBJECT_ID": "1993-036EN", "EPOCH": "2025-12-12T06:57:26.283456", "MEAN_MOTION": 14.33488011, "ECCENTRICITY": 0.00707913, "INCLINATION": 74.0894, "RA_OF_ASC_NODE": 60.9565, "ARG_OF_PERICENTER": 69.5045, "MEAN_ANOMALY": 291.3686, "EPHEMERIS_TYPE": 0, "CLASSIFICATION_TYPE": "U", "NORAD_CAT_ID": 33933, "ELEMENT_SET_NO": 999, "REV_AT_EPOCH": 87778, "BSTAR": 0.00042909955, "MEAN_MOTION_DOT": 1.195e-05, "MEAN_MOTION_DDOT": 0}, "tle": {"line1": "1 33933U 93036EN  25346.28988754  .00001195  00000+0  42910-3 0  9997", "line2": "2 33933  74.0894  60.9565 0070791  69.5045 291.3686 14.33488011877784"}}, "geometry": {"type": "Point", "coordinates": [-108.37621373030763, -34.373872588957404]}}, {"type": "Feature", "properties": {"norad_id": 33934, "name": "COSMOS 2251 DEB", "group": "cosmos-2251-debris", "lat": -38.044938040805384, "lon": 87.87491585347058, "alt_km": 703.2069156701227, "timestamp": "2025-12-12T14:39:18.325863+00:00", "meta": {"OBJECT_NAME": "COSMOS 2251 DEB", "OBJECT_ID": "1993-036EP", "EPOCH": "2025-12-12T06:36:36.237888", "MEAN_MOTION": 14.59104297, "ECCENTRICITY": 0.00156851, "INCLINATION": 74.0378, "RA_OF_ASC_NODE": 101.4563, "ARG_OF_PERICENTER": 225.2485, "MEAN_ANOMALY": 134.7405, "EPHEMERIS_TYPE": 0, "CLASSIFICATION_TYPE": "U", "NORAD_CAT_ID": 33934, "ELEMENT_SET_NO": 999, "REV_AT_EPOCH": 88732, "BSTAR": 0.0015635247, "MEAN_MOTION_DOT": 7.349e-05, "MEAN_MOTION_DDOT": 0}, "tle": {"line1": "1 33934U 93036EP  25346.27541942  .00007349  00000+0  15635-2 0  9991", "line2": "2 33934  74.0378 101.4563 0015685 225.2485 134.7405 14.59104297887320"}}, "geometry": {"type": "Point", "coordinates": [87.87491585347058, -38.044938040805384]}}, {"type": "Feature", "properties": {"norad_id": 33936, "name": "COSMOS 2251 DEB", "group": "cosmos-2251-debris", "lat": -62.8917344494185, "lon": -108.2258137615764, "alt_km": 687.8197371410834, "timestamp": "2025-12-12T14:39:18.325872+00:00", "meta": {"OBJECT_NAME": "COSMOS 2251 DEB", "OBJECT_ID": "1993-036ER", "EPOCH": "2025-12-12T06:56:52.852704", "MEAN_MOTION": 14.60268593, "ECCENTRICITY": 0.0027593, "INCLINATION": 74.019, "RA_OF_ASC_NODE": 38.3443, "ARG_OF_PERICENTER": 193.7679, "MEAN_ANOMALY": 166.2738, "EPHEMERIS_TYPE": 0, "CLASSIFICATION_TYPE": "U", "NORAD_CAT_ID": 33936, "ELEMENT_SET_NO": 999, "REV_AT_EPOCH": 88883, "BSTAR": 0.0011122852, "MEAN_MOTION_DOT": 5.372e-05, "MEAN_MOTION_DDOT": 0}, "tle": {"line1": "1 33936U 93036ER  25346.28950061  .00005372  00000+0  11123-2 0  9992", "line2": "2 33936  74.0190  38.3443 0027593 193.7679 166.2738 14.60268593888832"}}, "geometry": {"type": "Point", "coordinates": [-108.2258137615764, -62.8917344494185]}}, {"type": "Feature", "properties": {"norad_id": 33938, "name": "COSMOS 2251 DEB", "group": "cosmos-2251-debris", "lat": 66.52343769866381, "lon": -13.781231656420935, "alt_km": 741.2899455983134, "timestamp": "2025-12-12T14:39:18.325881+00:00", "meta": {"OBJECT_NAME": "COSMOS 2251 DEB", "OBJECT_ID": "1993-036ET", "EPOCH": "2025-12-12T01:25:35.164992", "MEAN_MOTION": 14.46790384, "ECCENTRICITY": 0.00168557, "INCLINATION": 74.0451, "RA_OF_ASC_NODE": 208.4465, "ARG_OF_PERICENTER": 290.6684, "MEAN_ANOMALY": 187.036, "EPHEMERIS_TYPE": 0, "CLASSIFICATION_TYPE": "U", "NORAD_CAT_ID": 33938, "ELEMENT_SET_NO": 999, "REV_AT_EPOCH": 88390, "BSTAR": 0.00067292147, "MEAN_MOTION_DOT": 2.415e-05, "MEAN_MOTION_DDOT": 0}, "tle": {"line1": "1 33938U 93036ET  25346.05943478  .00002415  00000+0  67292-3 0  9997", "line2": "2 33938  74.0451 208.4465 0016855 290.6684 187.0360 14.46790384883907"}}, "geometry": {"type": "Point", "coordinates": [-13.781231656420935, 66.52343769866381]}}]}